SMILE                   
1 69123U 26109A   26158.38327019 -.00000041  00000+0 -36778-3 0  9994
2 69123  69.9787 209.3069 3310191 288.5544  45.7342  7.54049028  2480
STARLINK-37726          
1 69124U 26110A   26169.52504277  .00044021  00000+0  80542-3 0  9990
2 69124  97.2840   5.7550 0001189  95.4062 264.7325 15.49229381  5807
STARLINK-37722          
1 69125U 26110B   26169.75002315 -.00015945  00000+0 -49308-3 0  9992
2 69125  97.2843   6.1061 0001577  71.7799  30.4853 15.33414506  5956
STARLINK-37715          
1 69126U 26110C   26169.47864618  .00012091  00000+0  37614-3 0  9998
2 69126  97.2833   5.8201 0002387  90.8618 269.2898 15.33452532  5806
STARLINK-37706          
1 69127U 26110D   26169.47592591  .00012194  00000+0  37933-3 0  9995
2 69127  97.2842   5.8238 0002236  85.8620 274.2878 15.33451472  5803
STARLINK-37723          
1 69128U 26110E   26169.47320839  .00017853  00000+0  55384-3 0  9997
2 69128  97.2841   5.8276 0002307  82.6350 277.5155 15.33452538  5807
STARLINK-37720          
1 69129U 26110F   26169.51626058  .00042808  00000+0  78347-3 0  9997
2 69129  97.2854   5.7654 0001799  91.7793 268.3665 15.49225361  5800
STARLINK-37533          
1 69130U 26110G   26169.53030858  .00019116  00000+0  59319-3 0  9992
2 69130  97.2860   5.9035 0001196  97.7640 262.3739 15.33432731  5813
STARLINK-37530          
1 69131U 26110H   26169.52758818  .00011131  00000+0  34653-3 0  9998
2 69131  97.2845   5.9052 0002436  84.0723 276.0797 15.33448440  5815
STARLINK-37660          
1 69132U 26110J   26169.75002315 -.00015332  00000+0 -42302-3 0  9997
2 69132  97.2854   6.1249 0001586  83.8524  63.5768 15.36985962  5903
STARLINK-37633          
1 69133U 26110K   26169.75002315 -.00016646  00000+0 -51477-3 0  9990
2 69133  97.2855   6.1355 0001732 123.2780  53.8920 15.33421925  5902
STARLINK-37361          
1 69134U 26110L   26169.66671295 -.00049220  00000+0 -15312-2 0  9991
2 69134  97.2845   6.0634 0001880  87.8788   4.7896 15.33463637  5899
STARLINK-37372          
1 69135U 26110M   26169.75002315 -.01287666  00000+0 -38889-1 0  9995
2 69135  97.2849   6.1451 0001549  91.0211 108.7143 15.37466585  5903
STARLINK-37531          
1 69136U 26110N   26169.75002315 -.00030007  00000+0 -93063-3 0  9997
2 69136  97.2847   6.1571 0001527  93.6888 128.5613 15.33451426  5905
STARLINK-37662          
1 69137U 26110P   26169.75002315 -.00016516  00000+0 -45590-3 0  9999
2 69137  97.2854   6.1523 0000990  70.3798 138.9980 15.36989504  5904
STARLINK-37658          
1 69138U 26110Q   26169.52887255  .00033263  00000+0  61026-3 0  9997
2 69138  97.2826   5.9042 0001086 103.1548 256.9825 15.49208903  5812
STARLINK-37659          
1 69139U 26110R   26169.47197454  .00031263  00000+0  57354-3 0  9994
2 69139  97.2854   5.8294 0001899  90.7409 269.4060 15.49221228  5805
STARLINK-37653          
1 69140U 26110S   26169.47444015  .00032617  00000+0  59824-3 0  9992
2 69140  97.2844   5.8271 0002057  99.4158 260.7326 15.49219292  5802
STARLINK-37654          
1 69141U 26110T   26169.75002315 -.00024278  00000+0 -67213-3 0  9994
2 69141  97.2850   6.1703 0001119  88.4983 168.7572 15.36976678  5901
STARLINK-37655          
1 69142U 26110U   26169.75002315 -.00022721  00000+0 -62871-3 0  9991
2 69142  97.2853   6.1852 0001070  95.2957 195.9351 15.36979443  5903
STARLINK-37636          
1 69143U 26110V   26169.49497544  .00012080  00000+0  37571-3 0  9999
2 69143  97.2849   5.9517 0002030  78.5218 281.6253 15.33460575  5817
STARLINK-37638          
1 69144U 26110W   26169.49223929  .00016469  00000+0  51130-3 0  9996
2 69144  97.2848   5.9553 0001459  91.1866 268.9543 15.33446986  5811
STARLINK-37657          
1 69145U 26110X   26168.52679562  .00031248  00000+0  57347-3 0  9996
2 69145  97.2820   4.9711 0001302  96.0721 264.0679 15.49212420  5669
STARLINK-37639          
1 69146U 26110Y   26169.75002315 -.00026098  00000+0 -80833-3 0  9994
2 69146  97.2851   6.2220 0001483  80.0926 292.0906 15.33465183  5959
STARLINK-37661          
1 69147U 26110Z   26169.51713323  .00041006  00000+0  75079-3 0  9997
2 69147  97.2856   5.9191 0001975  97.5754 262.5722 15.49222794  5815
STARLINK-37395          
1 69148U 26111A   26169.75002315 -.01847976  00000+0 -31580-1 0  9997
2 69148  53.1605 144.5713 0001070  88.7838  50.4739 15.54120324  5803
STARLINK-37346          
1 69149U 26111B   26169.66457910  .00022353  00000+0  40857-3 0  9993
2 69149  53.1602 145.7511 0001518 116.9063 243.2102 15.49326040  4476
STARLINK-37332          
1 69150U 26111C   26169.62888600  .00010383  00000+0  19435-3 0  9993
2 69150  53.1608 146.2507 0001172 105.0399 255.0740 15.49329963  4467
STARLINK-37297          
1 69151U 26111D   26169.75002315  .00073399  00000+0  13175-2 0  9999
2 69151  53.1607 144.6250 0001413  98.1026  14.1515 15.49264185  5808
STARLINK-37317          
1 69152U 26111E   26169.75002315 -.02448631  00000+0 -47246-1 0  9994
2 69152  53.1600 144.4002 0001594  86.7044 136.0911 15.50625559  5800
