OBJECT_NAME,OBJECT_ID,EPOCH,MEAN_MOTION,ECCENTRICITY,INCLINATION,RA_OF_ASC_NODE,ARG_OF_PERICENTER,MEAN_ANOMALY,EPHEMERIS_TYPE,CLASSIFICATION_TYPE,NORAD_CAT_ID,ELEMENT_SET_NO,REV_AT_EPOCH,BSTAR,MEAN_MOTION_DOT,MEAN_MOTION_DDOT
SMILE,2026-109A,2026-06-07T09:11:54.544416,7.54049028,.3310191,69.9787,209.3069,288.5544,45.7342,0,U,69123,999,248,-.36778157E-3,-.41E-6,0
STARLINK-37726,2026-110A,2026-06-18T12:36:03.695328,15.49229381,.0001189,97.2840,5.7550,95.4062,264.7325,0,U,69124,999,580,.80542E-3,.44021E-3,0
STARLINK-37722,2026-110B,2026-06-18T18:00:02.000160,15.33414506,.0001577,97.2843,6.1061,71.7799,30.4853,0,U,69125,999,595,-.49308E-3,-.15945E-3,0
STARLINK-37715,2026-110C,2026-06-18T11:29:15.029952,15.33452532,.0002387,97.2833,5.8201,90.8618,269.2898,0,U,69126,999,580,.37614E-3,.12091E-3,0
STARLINK-37706,2026-110D,2026-06-18T11:25:19.998624,15.33451472,.0002236,97.2842,5.8238,85.8620,274.2878,0,U,69127,999,580,.37933E-3,.12194E-3,0
STARLINK-37723,2026-110E,2026-06-18T11:21:25.204896,15.33452538,.0002307,97.2841,5.8276,82.6350,277.5155,0,U,69128,999,580,.55384E-3,.17853E-3,0
STARLINK-37720,2026-110F,2026-06-18T12:23:24.914112,15.49225361,.0001799,97.2854,5.7654,91.7793,268.3665,0,U,69129,999,580,.78347E-3,.42808E-3,0
STARLINK-37533,2026-110G,2026-06-18T12:43:38.661312,15.33432731,.0001196,97.2860,5.9035,97.7640,262.3739,0,U,69130,999,581,.59319E-3,.19116E-3,0
STARLINK-37530,2026-110H,2026-06-18T12:39:43.618752,15.33448440,.0002436,97.2845,5.9052,84.0723,276.0797,0,U,69131,999,581,.34653E-3,.11131E-3,0
STARLINK-37660,2026-110J,2026-06-18T18:00:02.000160,15.36985962,.0001586,97.2854,6.1249,83.8524,63.5768,0,U,69132,999,590,-.42302E-3,-.15332E-3,0
STARLINK-37633,2026-110K,2026-06-18T18:00:02.000160,15.33421925,.0001732,97.2855,6.1355,123.2780,53.8920,0,U,69133,999,590,-.51477E-3,-.16646E-3,0
STARLINK-37361,2026-110L,2026-06-18T16:00:03.998880,15.33463637,.000188,97.2845,6.0634,87.8788,4.7896,0,U,69134,999,589,-.15312E-2,-.4922E-3,0
STARLINK-37372,2026-110M,2026-06-18T18:00:02.000160,15.37466585,.0001549,97.2849,6.1451,91.0211,108.7143,0,U,69135,999,590,-.38889E-1,-.1287666E-1,0
STARLINK-37531,2026-110N,2026-06-18T18:00:02.000160,15.33451426,.0001527,97.2847,6.1571,93.6888,128.5613,0,U,69136,999,590,-.93063E-3,-.30007E-3,0
STARLINK-37662,2026-110P,2026-06-18T18:00:02.000160,15.36989504,.000099,97.2854,6.1523,70.3798,138.9980,0,U,69137,999,590,-.4559E-3,-.16516E-3,0
STARLINK-37658,2026-110Q,2026-06-18T12:41:34.588320,15.49208903,.0001086,97.2826,5.9042,103.1548,256.9825,0,U,69138,999,581,.61026E-3,.33263E-3,0
STARLINK-37659,2026-110R,2026-06-18T11:19:38.600256,15.49221228,.0001899,97.2854,5.8294,90.7409,269.4060,0,U,69139,999,580,.57354E-3,.31263E-3,0
STARLINK-37653,2026-110S,2026-06-18T11:23:11.628960,15.49219292,.0002057,97.2844,5.8271,99.4158,260.7326,0,U,69140,999,580,.59824E-3,.32617E-3,0
STARLINK-37654,2026-110T,2026-06-18T18:00:02.000160,15.36976678,.0001119,97.2850,6.1703,88.4983,168.7572,0,U,69141,999,590,-.67213E-3,-.24278E-3,0
STARLINK-37655,2026-110U,2026-06-18T18:00:02.000160,15.36979443,.000107,97.2853,6.1852,95.2957,195.9351,0,U,69142,999,590,-.62871E-3,-.22721E-3,0
STARLINK-37636,2026-110V,2026-06-18T11:52:45.878016,15.33460575,.000203,97.2849,5.9517,78.5218,281.6253,0,U,69143,999,581,.37571E-3,.1208E-3,0
STARLINK-37638,2026-110W,2026-06-18T11:48:49.474656,15.33446986,.0001459,97.2848,5.9553,91.1866,268.9543,0,U,69144,999,581,.5113E-3,.16469E-3,0
STARLINK-37657,2026-110X,2026-06-17T12:38:35.141568,15.49212420,.00013028,97.2820,4.9711,96.0721,264.0679,0,U,69145,999,566,.57347262E-3,.31248E-3,0
STARLINK-37639,2026-110Y,2026-06-18T18:00:02.000160,15.33465183,.0001483,97.2851,6.2220,80.0926,292.0906,0,U,69146,999,595,-.80833E-3,-.26098E-3,0
STARLINK-37661,2026-110Z,2026-06-18T12:24:40.311072,15.49222794,.0001975,97.2856,5.9191,97.5754,262.5722,0,U,69147,999,581,.75079E-3,.41006E-3,0
STARLINK-37395,2026-111A,2026-06-18T18:00:02.000160,15.54120324,.000107,53.1605,144.5713,88.7838,50.4739,0,U,69148,999,580,-.3158E-1,-.1847976E-1,0
STARLINK-37346,2026-111B,2026-06-18T15:56:59.634240,15.49326040,.0001518,53.1602,145.7511,116.9063,243.2102,0,U,69149,999,447,.40857E-3,.22353E-3,0
STARLINK-37332,2026-111C,2026-06-18T15:05:35.750400,15.49329963,.0001172,53.1608,146.2507,105.0399,255.0740,0,U,69150,999,446,.19435E-3,.10383E-3,0
STARLINK-37297,2026-111D,2026-06-18T18:00:02.000160,15.49264185,.0001413,53.1607,144.6250,98.1026,14.1515,0,U,69151,999,580,.13175E-2,.73399E-3,0
STARLINK-37317,2026-111E,2026-06-18T18:00:02.000160,15.50625559,.0001594,53.1600,144.4002,86.7044,136.0911,0,U,69152,999,580,-.47246E-1,-.2448631E-1,0
